[{"OBJECT_NAME":"STARLINK-5285","OBJECT_ID":"2023-010AD","EPOCH":"2026-03-09T21:36:57.639168","MEAN_MOTION":14.98339026,"ECCENTRICITY":0.00018655,"INCLINATION":70.0037,"RA_OF_ASC_NODE":23.8112,"ARG_OF_PERICENTER":262.0351,"MEAN_ANOMALY":98.0597,"EPHEMERIS_TYPE":0,"CLASSIFICATION_TYPE":"U","NORAD_CAT_ID":55296,"ELEMENT_SET_NO":999,"REV_AT_EPOCH":17418,"BSTAR":-5.6290354e-5,"MEAN_MOTION_DOT":-7.64e-6,"MEAN_MOTION_DDOT":0},{"OBJECT_NAME":"CZ-4C DEB","OBJECT_ID":"2010-038D","EPOCH":"2026-03-09T01:12:27.235872","MEAN_MOTION":14.75804828,"ECCENTRICITY":0.01202328,"INCLINATION":97.9532,"RA_OF_ASC_NODE":164.702,"ARG_OF_PERICENTER":229.9203,"MEAN_ANOMALY":129.1417,"EPHEMERIS_TYPE":0,"CLASSIFICATION_TYPE":"U","NORAD_CAT_ID":37568,"ELEMENT_SET_NO":999,"REV_AT_EPOCH":82101,"BSTAR":0.0014631198,"MEAN_MOTION_DOT":0.00011242,"MEAN_MOTION_DDOT":0}]
